stk.v.9.0
WrittenBy    STK_v9.2.3

BEGIN Satellite

Name		R2

BEGIN VehiclePath
	CentralBody				Earth

    BEGIN Interval

         StartTime            3 Jan 2017 23:00:09.000000000
         StopTime             17 Jan 2017 23:00:09.000000000

    END Interval

	StoreEphemeris				Yes
	SmoothInterp				No

    BEGIN SGP4

    VersionIndicator    20080918

    SSCNumber           32382
    IntlDesignator      2007-061A  
    UseScenInterval     Yes
    StartTime           3 Jan 2017 23:00:09.000
    StopTime            17 Jan 2017 23:00:09.000
    TimeStep            60.000000
    Use1PtInterpolation Yes
    Use1PtValidation    No
    Use1PtInterpWarning No
    UpdateMode          OnlineAGI
    RetrieveMethod      AllTLEs
    UpdateSwitchMethod  Epoch

    Begin TwoLineElement

    Enabled             Yes

    Source              OnlineAGI
    LastUpdated         11 Jan 2017 04:59:39.000

    SwitchMethod        Epoch

    TLE
    1 32382U 07061A   17003.94819286 -.00000040  00000-0  14819-5 0  9993
    2 32382  98.5758  13.9463 0001071  88.4702 327.9945 14.29984344472826

    END TwoLineElement


    Begin TwoLineElement

    Enabled             Yes

    Source              OnlineAGI
    LastUpdated         11 Jan 2017 04:59:39.000

    SwitchMethod        Epoch

    TLE
    1 32382U 07061A   17004.08510068  .00000012  00000-0  21548-4 0  9999
    2 32382  98.5758  14.0809 0001102  76.0347 324.8207 14.29984706472846

    END TwoLineElement


    Begin TwoLineElement

    Enabled             Yes

    Source              OnlineAGI
    LastUpdated         11 Jan 2017 04:59:39.000

    SwitchMethod        Epoch

    TLE
    1 32382U 07061A   17004.46001294 -.00000008  00000-0  13761-4 0  9991
    2 32382  98.5759  14.4504 0001117  87.4553  82.3289 14.29984753472897

    END TwoLineElement


    Begin TwoLineElement

    Enabled             Yes

    Source              OnlineAGI
    LastUpdated         11 Jan 2017 04:59:39.000

    SwitchMethod        Epoch

    TLE
    1 32382U 07061A   17004.93803427 -.00000017  00000-0  10435-4 0  9996
    2 32382  98.5763  14.9214 0001140  89.1236  20.0817 14.29984547472963

    END TwoLineElement


    Begin TwoLineElement

    Enabled             Yes

    Source              OnlineAGI
    LastUpdated         11 Jan 2017 04:59:39.000

    SwitchMethod        Epoch

    TLE
    1 32382U 07061A   17005.91847319  .00000020  00000-0  24835-4 0  9995
    2 32382  98.5762  15.8876 0001165  88.1514  25.4187 14.29984792473109

    END TwoLineElement


    Begin TwoLineElement

    Enabled             Yes

    Source              OnlineAGI
    LastUpdated         11 Jan 2017 04:59:39.000

    SwitchMethod        Epoch

    TLE
    1 32382U 07061A   17006.75299133 -.00000006  00000-0  14409-4 0  9994
    2 32382  98.5757  16.7091 0001159  76.5450  10.6228 14.29984733473225

    END TwoLineElement


    Begin TwoLineElement

    Enabled             Yes

    Source              OnlineAGI
    LastUpdated         11 Jan 2017 04:59:39.000

    SwitchMethod        Epoch

    TLE
    1 32382U 07061A   17007.53612464  .00000214  00000-0  10000-3 0  9999
    2 32382  98.5765  17.4817 0001215  88.9794  67.4206 14.29985889473330

    END TwoLineElement


    Begin TwoLineElement

    Enabled             Yes

    Source              OnlineAGI
    LastUpdated         11 Jan 2017 04:59:39.000

    SwitchMethod        Epoch

    TLE
    1 32382U 07061A   17008.00583984  .00000214  00000-0  10000-3 0  9996
    2 32382  98.5767  17.9443 0001229  86.0223 327.0633 14.29985796473407

    END TwoLineElement


    Begin TwoLineElement

    Enabled             Yes

    Source              OnlineAGI
    LastUpdated         11 Jan 2017 04:59:39.000

    SwitchMethod        Epoch

    TLE
    1 32382U 07061A   17009.19787189  .00000141  00000-0  71573-4 0  9992
    2 32382  98.5765  19.1185 0001243  83.2283 342.8698 14.29985612473574

    END TwoLineElement


    Begin TwoLineElement

    Enabled             Yes

    Source              OnlineAGI
    LastUpdated         11 Jan 2017 04:59:39.000

    SwitchMethod        Epoch

    TLE
    1 32382U 07061A   17010.17674946  .00000104  00000-0  57295-4 0  9992
    2 32382  98.5764  20.0827 0001253  82.7405 339.6896 14.29985595473718
